[{"OBJECT_NAME":"VSP RF B1","OBJECT_ID":"2024-043AR","EPOCH":"2026-03-09T22:40:29.479296","MEAN_MOTION":15.26694159,"ECCENTRICITY":0.00102608,"INCLINATION":97.5446,"RA_OF_ASC_NODE":204.7052,"ARG_OF_PERICENTER":220.7435,"MEAN_ANOMALY":139.3037,"EPHEMERIS_TYPE":0,"CLASSIFICATION_TYPE":"U","NORAD_CAT_ID":59137,"ELEMENT_SET_NO":999,"REV_AT_EPOCH":11187,"BSTAR":0.00024406819,"MEAN_MOTION_DOT":6.341e-5,"MEAN_MOTION_DDOT":0},{"OBJECT_NAME":"STARLINK-36067","OBJECT_ID":"2025-288G","EPOCH":"2026-03-09T21:49:15.652416","MEAN_MOTION":15.27574345,"ECCENTRICITY":0.0001357,"INCLINATION":43.0022,"RA_OF_ASC_NODE":21.9852,"ARG_OF_PERICENTER":259.2517,"MEAN_ANOMALY":100.8182,"EPHEMERIS_TYPE":0,"CLASSIFICATION_TYPE":"U","NORAD_CAT_ID":66965,"ELEMENT_SET_NO":999,"REV_AT_EPOCH":1532,"BSTAR":0.0010473701,"MEAN_MOTION_DOT":0.00028666,"MEAN_MOTION_DDOT":0}]
